{
    "links": {
        "self": "http://www.neowsapp.com/rest/v1/neo/3647647?api_key=iIulBulltgU6a56xZRHN4H3l9WmuAYTsLGpBGhQ2"
    },
    "id": "3647647",
    "neo_reference_id": "3647647",
    "name": "(2013 RC30)",
    "designation": "2013 RC30",
    "nasa_jpl_url": "http://ssd.jpl.nasa.gov/sbdb.cgi?sstr=3647647",
    "absolute_magnitude_h": 22.2,
    "estimated_diameter": {
        "kilometers": {
            "estimated_diameter_min": 0.096506147,
            "estimated_diameter_max": 0.2157943048
        },
        "meters": {
            "estimated_diameter_min": 96.5061469579,
            "estimated_diameter_max": 215.7943048444
        },
        "miles": {
            "estimated_diameter_min": 0.059966121,
            "estimated_diameter_max": 0.134088323
        },
        "feet": {
            "estimated_diameter_min": 316.6212271853,
            "estimated_diameter_max": 707.9865871058
        }
    },
    "is_potentially_hazardous_asteroid": false,
    "close_approach_data": [
        {
            "close_approach_date": "1994-05-03",
            "close_approach_date_full": "1994-May-03 08:14",
            "epoch_date_close_approach": 767952840000,
            "relative_velocity": {
                "kilometers_per_second": "8.7933335595",
                "kilometers_per_hour": "31656.0008142669",
                "miles_per_hour": "19669.8078392871"
            },
            "miss_distance": {
                "astronomical": "0.0574432519",
                "lunar": "22.3454249891",
                "kilometers": "8593388.130113453",
                "miles": "5339683.7796255314"
            },
            "orbiting_body": "Mars"
        },
        {
            "close_approach_date": "2012-01-04",
            "close_approach_date_full": "2012-Jan-04 20:46",
            "epoch_date_close_approach": 1325709960000,
            "relative_velocity": {
                "kilometers_per_second": "3.9649651044",
                "kilometers_per_hour": "14273.8743756699",
                "miles_per_hour": "8869.2304419267"
            },
            "miss_distance": {
                "astronomical": "0.4692309235",
                "lunar": "182.5308292415",
                "kilometers": "70195946.693732945",
                "miles": "43617738.694066841"
            },
            "orbiting_body": "Earth"
        },
        {
            "close_approach_date": "2013-09-21",
            "close_approach_date_full": "2013-Sep-21 00:33",
            "epoch_date_close_approach": 1379723580000,
            "relative_velocity": {
                "kilometers_per_second": "6.2371774381",
                "kilometers_per_hour": "22453.8387773175",
                "miles_per_hour": "13951.9422113837"
            },
            "miss_distance": {
                "astronomical": "0.4183652659",
                "lunar": "162.7440884351",
                "kilometers": "62586552.660623633",
                "miles": "38889480.4941388154"
            },
            "orbiting_body": "Earth"
        }
    ],
    "orbital_data": {
        "orbit_id": "10",
        "orbit_determination_date": "2017-04-06 08:44:48",
        "first_observation_date": "2013-09-03",
        "last_observation_date": "2013-09-25",
        "data_arc_in_days": 22,
        "observations_used": 30,
        "orbit_uncertainty": "6",
        "minimum_orbit_intersection": ".297788",
        "jupiter_tisserand_invariant": "4.191",
        "epoch_osculation": "2459000.5",
        "eccentricity": ".2542008625291881",
        "semi_major_axis": "1.669209973942656",
        "inclination": "11.429747399176",
        "ascending_node_longitude": "174.3324136627661",
        "orbital_period": "787.7073239364769",
        "perihelion_distance": "1.244895358824109",
        "perihelion_argument": "237.0683047630708",
        "aphelion_distance": "2.093524589061203",
        "perihelion_time": "2459003.081950893158",
        "mean_anomaly": "358.8199902510849",
        "mean_motion": ".4570225375091619",
        "equinox": "J2000",
        "orbit_class": {
            "orbit_class_type": "AMO",
            "orbit_class_description": "Near-Earth asteroid orbits similar to that of 1221 Amor",
            "orbit_class_range": "1.017 AU < q (perihelion) < 1.3 AU"
        }
    },
    "is_sentry_object": false
}